OBJECT_NAME,OBJECT_ID,EPOCH,MEAN_MOTION,ECCENTRICITY,INCLINATION,RA_OF_ASC_NODE,ARG_OF_PERICENTER,MEAN_ANOMALY,EPHEMERIS_TYPE,CLASSIFICATION_TYPE,NORAD_CAT_ID,ELEMENT_SET_NO,REV_AT_EPOCH,BSTAR,MEAN_MOTION_DOT,MEAN_MOTION_DDOT
STARLINK-4740,2022-114BF,2026-07-02T14:00:01.999872,15.24434330,.00008598,53.1612,107.0791,98.0132,231.0707,0,U,53871,999,579,.30123808E-2,.75305E-3,0
STARLINK-5028,2022-119A,2026-07-02T05:37:09.262272,15.08836272,.00015542,53.1600,169.9534,74.5781,285.5382,0,U,53886,999,20897,.25204322E-4,.113E-5,0
STARLINK-5029,2022-119B,2026-07-02T06:56:37.468320,15.08835059,.00012551,53.1595,169.5860,81.9399,278.1735,0,U,53887,999,20898,.49789698E-4,.504E-5,0
STARLINK-5031,2022-119D,2026-07-02T05:26:32.777664,15.08831270,.00014598,53.1607,169.9048,83.7799,276.3359,0,U,53889,999,20897,.12943791E-4,-.82E-6,0
STARLINK-5050,2022-119E,2026-07-02T14:02:29.666112,15.08833379,.00014409,53.1598,132.9307,87.0414,273.0742,0,U,53890,999,20952,.51115283E-4,.525E-5,0
STARLINK-5041,2022-119F,2026-07-02T14:00:01.999872,15.54356939,.00013805,53.2164,153.8358,66.0085,35.1626,0,U,53891,999,589,.26778958E-2,.182178E-2,0
STARLINK-5046,2022-119G,2026-07-02T06:24:47.401920,15.08832436,.00012535,53.1594,169.4522,80.5461,279.5672,0,U,53892,999,20898,.12742691E-4,-.85E-6,0
STARLINK-5052,2022-119H,2026-07-02T06:42:05.178240,15.08835846,.00011325,53.1590,169.5250,73.4465,286.6651,0,U,53893,999,20898,.78097527E-4,.955E-5,0
STARLINK-5043,2022-119J,2026-07-02T14:00:01.999872,15.39423362,.00011841,53.2185,157.6094,80.1869,236.9039,0,U,53894,999,587,-.22777355E-1,-.837227E-2,0
STARLINK-5032,2022-119K,2026-07-02T10:11:11.978880,16.10997605,.00009527,53.2098,132.1435,271.4885,88.6042,0,U,53895,999,20952,.60216665E-3,.619578E-2,.21605319E-3
STARLINK-5037,2022-119L,2026-07-02T06:19:28.870176,15.08834328,.00012519,53.1597,169.4305,77.5163,282.5969,0,U,53896,999,20898,.28575825E-4,.167E-5,0
STARLINK-5035,2022-119M,2026-07-02T14:00:01.999872,15.81832695,.00007545,53.2161,145.7099,112.4789,105.7558,0,U,53897,999,589,.22361791E-2,.487643E-2,0
STARLINK-5044,2022-119N,2026-07-02T06:03:33.530688,15.08836104,.00012187,53.1599,169.3610,81.3173,278.7956,0,U,53898,999,20898,.22610111E-4,.72E-6,0
STARLINK-5042,2022-119P,2026-07-02T09:49:06.603744,16.16813934,.0004639,53.2095,131.9841,231.6332,128.4291,0,U,53899,999,20952,.58194047E-3,.897233E-2,.5367668E-3
STARLINK-5045,2022-119Q,2026-07-02T05:52:57.345024,15.08831208,.00013888,53.1600,169.3169,71.3798,288.7344,0,U,53900,999,20898,.22140598E-4,.64E-6,0
STARLINK-5021,2022-119S,2026-07-02T14:00:01.999872,15.12068735,.00021997,53.1612,117.8616,96.8183,321.7451,0,U,53902,999,570,.23585903E-2,.40978E-3,0
STARLINK-5022,2022-119T,2026-07-02T06:15:33.503616,15.08831670,.0001151,53.1599,169.4109,75.7217,284.3902,0,U,53903,999,20898,.18886129E-4,.13E-6,0
STARLINK-4787,2022-119U,2026-07-02T14:00:01.999872,15.11658413,.00021392,53.1605,167.7364,14.0697,53.5603,0,U,53904,999,575,.23785649E-3,.3798E-4,0
STARLINK-5003,2022-119V,2026-07-02T15:05:29.995296,15.08830239,.00012548,53.1593,158.1696,75.6705,284.4426,0,U,53905,999,20917,.16836989E-4,-.2E-6,0
STARLINK-5054,2022-119W,2026-07-02T05:59:34.942272,15.08837772,.00014992,53.1599,159.3695,113.6364,246.4785,0,U,53906,999,20912,-.16713387E-3,-.2947E-4,0
STARLINK-5057,2022-119Y,2026-07-02T14:54:52.945632,15.08835285,.00011893,53.1596,158.1246,82.6158,277.4968,0,U,53908,999,20917,.40576802E-4,.358E-5,0
STARLINK-4796,2022-119Z,2026-07-02T05:54:26.659296,15.08057647,.00010994,53.1615,160.0783,85.1043,275.0073,0,U,53909,999,20911,.37965707E-3,.5634E-4,0
STARLINK-5048,2022-119AB,2026-07-02T15:00:11.554272,15.08830049,.00013019,53.1592,158.1474,87.3308,272.7832,0,U,53911,999,20917,.209333E-5,-.255E-5,0
STARLINK-5059,2022-119AC,2026-07-02T05:49:00.535584,15.08823332,.0001282,53.1588,159.3277,66.9108,293.2018,0,U,53912,999,20912,.96316165E-4,.1245E-4,0
STARLINK-5053,2022-119AD,2026-07-02T05:01:21.455040,15.08831487,.00016034,53.1605,159.8178,88.1523,271.9652,0,U,53913,999,20911,-.78875778E-4,-.1543E-4,0
STARLINK-5040,2022-119AE,2026-07-02T04:56:00.680352,15.08865580,.00012306,53.1596,159.8000,74.3891,285.7236,0,U,53914,999,20911,.3444108E-3,.5202E-4,0
STARLINK-5051,2022-119AG,2026-07-02T14:05:34.142208,15.29970714,.00018314,53.1617,135.9025,102.7614,257.3591,0,U,53916,999,20949,.40143878E-2,.119612E-2,0
STARLINK-5036,2022-119AH,2026-07-02T13:36:26.892288,15.66038409,.0001153,53.2186,137.5080,95.7240,264.3908,0,U,53917,999,20946,.1528165E-3,.15406E-3,0
STARLINK-5012,2022-119AJ,2026-07-02T04:50:45.222720,15.08832578,.00012549,53.1592,159.7739,73.9140,286.1990,0,U,53918,999,20911,.79479017E-4,.977E-5,0
STARLINK-5023,2022-119AK,2026-07-02T14:00:01.999872,15.20935318,.0001251,53.2169,155.2263,85.2114,315.2494,0,U,53919,999,576,.46014127E-3,.10001E-3,0
STARLINK-5025,2022-119AL,2026-07-02T05:13:19.526304,15.08843449,.00011774,53.1596,159.8647,75.3552,284.7570,0,U,53920,999,20911,-.22964245E-3,-.3941E-4,0
STARLINK-5002,2022-119AN,2026-07-02T06:04:55.130304,15.08829630,.00015695,53.1602,159.3832,57.4670,302.6473,0,U,53922,999,20912,.10370934E-3,.1362E-4,0
STARLINK-5004,2022-119AP,2026-07-02T06:15:30.226464,15.08837854,.00012905,53.1595,159.4319,78.6672,281.4465,0,U,53923,999,20912,.73982779E-4,.89E-5,0
STARLINK-5001,2022-119AQ,2026-07-02T14:00:01.999872,15.49295435,.00011904,53.2178,142.9979,82.5690,59.3458,0,U,53924,999,582,.17100611E-3,.9069E-4,0
STARLINK-5011,2022-119AR,2026-07-02T05:43:40.556640,15.08829338,.0001181,53.1592,159.3032,77.4565,282.6558,0,U,53925,999,20912,.19323217E-4,.2E-6,0
STARLINK-5014,2022-119AS,2026-07-02T14:00:01.999872,15.60111818,.0001076,53.2182,131.4178,64.6460,180.7634,0,U,53926,999,578,-.70512322E-2,-.545526E-2,0
STARLINK-5009,2022-119AU,2026-07-02T04:46:45.530976,15.08837692,.00016165,53.1603,149.7800,81.2556,278.8619,0,U,53928,999,20925,-.52034383E-4,-.1116E-4,0
STARLINK-5018,2022-119AV,2026-07-02T05:55:47.164224,15.08831012,.00012611,53.1585,160.0391,82.3468,277.7666,0,U,53929,999,20911,.30733378E-4,.201E-5,0
STARLINK-5010,2022-119AW,2026-07-02T14:00:01.999872,15.78969383,.00009841,53.2146,115.6710,71.4459,185.1955,0,U,53930,999,592,-.16264406E-2,-.285355E-2,0
STARLINK-4772,2022-119AY,2026-07-02T05:11:18.054816,15.08835685,.00014057,53.1595,144.8956,90.9532,269.1621,0,U,53932,999,20933,.35018195E-4,.269E-5,0
STARLINK-4782,2022-119AZ,2026-07-02T14:13:46.210080,15.08824516,.00013822,53.1605,147.9712,84.3567,275.7582,0,U,53933,999,20931,.59105719E-4,.652E-5,0
STARLINK-4775,2022-119BA,2026-07-02T05:05:59.705376,15.08834816,.00013805,53.1610,144.8722,75.8401,284.2744,0,U,53934,999,20934,.49755308E-4,.504E-5,0
STARLINK-5000,2022-119BB,2026-07-02T07:51:51.458688,16.10500306,.00011331,53.2103,96.6114,282.9177,77.1733,0,U,53935,999,21001,.62464955E-3,.621823E-2,.21581769E-3
STARLINK-4791,2022-119BC,2026-07-02T14:00:01.999872,15.29733096,.00007643,53.1644,141.8281,68.5272,135.9404,0,U,53936,999,570,.25798525E-1,.815454E-2,0
STARLINK-4633,2022-125A,2026-07-01T23:28:51.438432,15.08823235,.00012586,53.1609,71.0340,84.0949,276.0186,0,U,53964,999,20657,-.34085153E-4,-.83E-5,0
STARLINK-4635,2022-125C,2026-07-01T23:18:14.214240,15.08826254,.00014554,53.1624,70.9894,88.7893,271.3266,0,U,53966,999,20657,.12960117E-3,.1774E-4,0
STARLINK-4634,2022-125D,2026-07-01T23:12:55.733472,15.08835700,.00013319,53.1607,70.9645,88.6122,271.5022,0,U,53967,999,20657,.43479009E-4,.404E-5,0
STARLINK-4629,2022-125E,2026-07-02T10:04:42.233664,15.08842038,.00013412,53.1613,68.8115,85.7857,274.3288,0,U,53968,999,20664,.47395229E-4,.466E-5,0
STARLINK-4468,2022-125F,2026-07-01T23:07:37.341696,15.08843092,.00013046,53.1610,70.9418,85.9644,274.1497,0,U,53969,999,20657,.44862234E-4,.426E-5,0
STARLINK-4567,2022-125G,2026-07-01T23:10:56.620704,15.08826547,.00010473,53.1593,65.9740,85.2198,274.8913,0,U,53970,999,20665,.86552228E-4,.1089E-4,0
STARLINK-5156,2022-125K,2026-07-02T09:59:24.110592,15.08839057,.00015042,53.1624,68.7890,85.7327,274.3836,0,U,53973,999,20664,.5783398E-4,.632E-5,0
STARLINK-5159,2022-125L,2026-07-02T15:35:51.404928,15.08825063,.00012622,53.1619,47.4617,80.9948,279.1186,0,U,53974,999,20696,.77199329E-4,.94E-5,0
STARLINK-5137,2022-125M,2026-07-01T23:42:41.056416,15.08835723,.00012272,53.1605,65.4116,96.5809,263.5322,0,U,53975,999,20665,.68990294E-4,.81E-5,0
STARLINK-5134,2022-125N,2026-07-02T14:00:01.999872,15.12163448,.00018335,53.1598,48.2503,67.0920,43.8586,0,U,53976,999,580,.38093811E-2,.66784E-3,0
STARLINK-5094,2022-125P,2026-07-02T07:17:00.556224,15.09606369,.00015232,53.1617,64.5167,91.1553,268.9613,0,U,53977,999,20669,.51893882E-2,.85074E-3,0
STARLINK-5148,2022-125Q,2026-07-01T22:55:01.123968,15.08838966,.00013675,53.1615,65.8969,91.1391,268.9757,0,U,53978,999,20664,.11264473E-4,-.109E-5,0
STARLINK-5123,2022-125R,2026-07-01T23:05:38.338656,15.08833098,.00013016,53.1605,65.9433,88.6662,271.4479,0,U,53979,999,20664,.35048622E-4,.27E-5,0
STARLINK-5133,2022-125S,2026-07-01T22:28:29.193600,15.08842196,.00013117,53.1602,65.7885,83.5654,276.5487,0,U,53980,999,20664,.73197422E-4,.877E-5,0
STARLINK-5149,2022-125T,2026-07-02T14:21:44.781408,15.08807494,.00012113,53.1593,47.8642,80.7410,279.3718,0,U,53981,999,20695,-.16167883E-3,-.2858E-4,0
STARLINK-5120,2022-125U,2026-07-01T23:08:57.697152,15.08832734,.0001597,53.1607,60.9784,86.6416,273.4759,0,U,53982,999,20670,.6818623E-4,.797E-5,0
STARLINK-5142,2022-125W,2026-07-01T23:24:52.707456,15.08830346,.00013433,53.1608,61.0444,91.2235,268.8910,0,U,53984,999,20671,.68901421E-4,.808E-5,0
STARLINK-5147,2022-125X,2026-07-01T23:35:29.494464,15.08833258,.0001207,53.1606,61.0914,89.1319,270.9811,0,U,53985,999,20671,.8192936E-4,.1016E-4,0
STARLINK-5119,2022-125Y,2026-07-02T14:00:01.999872,15.29334694,.00012369,53.1586,46.2890,108.1334,288.6756,0,U,53986,999,554,.14629254E-2,.4207E-3,0
STARLINK-5113,2022-125AA,2026-07-01T23:19:34.467744,15.08828048,.00013332,53.1606,61.0223,90.7172,269.3972,0,U,53988,999,20670,.71141404E-4,.844E-5,0
